STARLINK-37134          
1 68281U 26055V   26089.16668981 -.01500972  65354-3 -39872-2 0  9996
2 68281  53.1571 234.7070 0000762  74.4167 142.9048 15.94021539  2926
STARLINK-37160          
1 68282U 26055W   26089.16668981 -.01497835  65051-3 -39961-2 0  9993
2 68282  53.1575 234.7158 0000969  68.8948 144.5821 15.93939601  2925
STARLINK-37124          
1 68283U 26055X   26089.16668981 -.01510529  66179-3 -39934-2 0  9992
2 68283  53.1572 234.7004 0000828  62.4713 158.2696 15.94113327  2929
STARLINK-37159          
1 68284U 26055Y   26089.16668981 -.01519812  66980-3 -40007-2 0  9990
2 68284  53.1573 234.6918 0000852  73.3472 151.4722 15.94195565  2923
STARLINK-36725          
1 68285U 26055Z   26089.16668981 -.01509658  66221-3 -39551-2 0  9998
2 68285  53.1569 234.6841 0000951  68.9404 159.2511 15.94283117  2922
STARLINK-36998          
1 68286U 26055AA  26089.16668981 -.01525524  67618-3 -39609-2 0  9994
2 68286  53.1577 234.6688 0000822  72.2177 164.1358 15.94454666  2926
STARLINK-37165          
1 68287U 26055AB  26089.16668981 -.01536775  68602-3 -39697-2 0  9996
2 68287  53.1573 234.6593 0000760  69.3578 170.8195 15.94552287  2922
STARLINK-37016          
1 68288U 26055AC  26089.16668981 -.01510770  66367-3 -39404-2 0  9996
2 68288  53.1571 234.6765 0000896  67.1969 164.8695 15.94367251  2925
STARLINK-37010          
1 68289U 26055AD  26089.16668981 -.01540914  69009-3 -39597-2 0  9999
2 68289  53.1574 234.6516 0000675  70.1472 173.4644 15.94650655  2924
STARLINK-37151          
1 68290U 26055AE  26089.16668981 -.01511098  66643-3 -38633-2 0  9993
2 68290  53.1569 234.6457 0000651  68.4784 178.2162 15.94741398  2927
STRIX-6                 
1 68291U 26056A   26089.04540287  .00006987  00000+0  57993-3 0  9995
2 68291  50.2845   3.7553 0016603 300.7517  59.1797 14.99622294  1393
ELECTRON R/B            
1 68292U 26056B   26089.12905978  .05326564  11475-4  11361-2 0  9999
2 68292  50.2563 357.3880 0140198 286.7867  71.7787 16.09220014  1486
