CCSDS_OMM_VERS = 2.0
CREATION_DATE  = 
ORIGINATOR     = 

OBJECT_NAME    = STARLINK-37134
OBJECT_ID      = 2026-055V
CENTER_NAME    = EARTH
REF_FRAME      = TEME
TIME_SYSTEM    = UTC
MEAN_ELEMENT_THEORY = SGP/SGP4

EPOCH          = 2026-03-30T04:00:01.999584
MEAN_MOTION    = 15.94021539
ECCENTRICITY   = .0000762
INCLINATION    = 53.1571
RA_OF_ASC_NODE = 234.7070
ARG_OF_PERICENTER = 74.4167
MEAN_ANOMALY   = 142.9048

EPHEMERIS_TYPE = 0
CLASSIFICATION_TYPE = U
NORAD_CAT_ID   = 68281
ELEMENT_SET_NO = 999
REV_AT_EPOCH   = 292
BSTAR          = -.39872E-2
MEAN_MOTION_DOT = -.1500972E-1
MEAN_MOTION_DDOT = .65354E-3

CCSDS_OMM_VERS = 2.0
CREATION_DATE  = 
ORIGINATOR     = 

OBJECT_NAME    = STARLINK-37160
OBJECT_ID      = 2026-055W
CENTER_NAME    = EARTH
REF_FRAME      = TEME
TIME_SYSTEM    = UTC
MEAN_ELEMENT_THEORY = SGP/SGP4

EPOCH          = 2026-03-30T04:00:01.999584
MEAN_MOTION    = 15.93939601
ECCENTRICITY   = .0000969
INCLINATION    = 53.1575
RA_OF_ASC_NODE = 234.7158
ARG_OF_PERICENTER = 68.8948
MEAN_ANOMALY   = 144.5821

EPHEMERIS_TYPE = 0
CLASSIFICATION_TYPE = U
NORAD_CAT_ID   = 68282
ELEMENT_SET_NO = 999
REV_AT_EPOCH   = 292
BSTAR          = -.39961E-2
MEAN_MOTION_DOT = -.1497835E-1
MEAN_MOTION_DDOT = .65051E-3

CCSDS_OMM_VERS = 2.0
CREATION_DATE  = 
ORIGINATOR     = 

OBJECT_NAME    = STARLINK-37124
OBJECT_ID      = 2026-055X
CENTER_NAME    = EARTH
REF_FRAME      = TEME
TIME_SYSTEM    = UTC
MEAN_ELEMENT_THEORY = SGP/SGP4

EPOCH          = 2026-03-30T04:00:01.999584
MEAN_MOTION    = 15.94113327
ECCENTRICITY   = .0000828
INCLINATION    = 53.1572
RA_OF_ASC_NODE = 234.7004
ARG_OF_PERICENTER = 62.4713
MEAN_ANOMALY   = 158.2696

EPHEMERIS_TYPE = 0
CLASSIFICATION_TYPE = U
NORAD_CAT_ID   = 68283
ELEMENT_SET_NO = 999
REV_AT_EPOCH   = 292
BSTAR          = -.39934E-2
MEAN_MOTION_DOT = -.1510529E-1
MEAN_MOTION_DDOT = .66179E-3

CCSDS_OMM_VERS = 2.0
CREATION_DATE  = 
ORIGINATOR     = 

OBJECT_NAME    = STARLINK-37159
OBJECT_ID      = 2026-055Y
CENTER_NAME    = EARTH
REF_FRAME      = TEME
TIME_SYSTEM    = UTC
MEAN_ELEMENT_THEORY = SGP/SGP4

EPOCH          = 2026-03-30T04:00:01.999584
MEAN_MOTION    = 15.94195565
ECCENTRICITY   = .0000852
INCLINATION    = 53.1573
RA_OF_ASC_NODE = 234.6918
ARG_OF_PERICENTER = 73.3472
MEAN_ANOMALY   = 151.4722

EPHEMERIS_TYPE = 0
CLASSIFICATION_TYPE = U
NORAD_CAT_ID   = 68284
ELEMENT_SET_NO = 999
REV_AT_EPOCH   = 292
BSTAR          = -.40007E-2
MEAN_MOTION_DOT = -.1519812E-1
MEAN_MOTION_DDOT = .6698E-3

CCSDS_OMM_VERS = 2.0
CREATION_DATE  = 
ORIGINATOR     = 

OBJECT_NAME    = STARLINK-36725
OBJECT_ID      = 2026-055Z
CENTER_NAME    = EARTH
REF_FRAME      = TEME
TIME_SYSTEM    = UTC
MEAN_ELEMENT_THEORY = SGP/SGP4

EPOCH          = 2026-03-30T04:00:01.999584
MEAN_MOTION    = 15.94283117
ECCENTRICITY   = .0000951
INCLINATION    = 53.1569
RA_OF_ASC_NODE = 234.6841
ARG_OF_PERICENTER = 68.9404
MEAN_ANOMALY   = 159.2511

EPHEMERIS_TYPE = 0
CLASSIFICATION_TYPE = U
NORAD_CAT_ID   = 68285
ELEMENT_SET_NO = 999
REV_AT_EPOCH   = 292
BSTAR          = -.39551E-2
MEAN_MOTION_DOT = -.1509658E-1
MEAN_MOTION_DDOT = .66221E-3

CCSDS_OMM_VERS = 2.0
CREATION_DATE  = 
ORIGINATOR     = 

OBJECT_NAME    = STARLINK-36998
OBJECT_ID      = 2026-055AA
CENTER_NAME    = EARTH
REF_FRAME      = TEME
TIME_SYSTEM    = UTC
MEAN_ELEMENT_THEORY = SGP/SGP4

EPOCH          = 2026-03-30T04:00:01.999584
MEAN_MOTION    = 15.94454666
ECCENTRICITY   = .0000822
INCLINATION    = 53.1577
RA_OF_ASC_NODE = 234.6688
ARG_OF_PERICENTER = 72.2177
MEAN_ANOMALY   = 164.1358

EPHEMERIS_TYPE = 0
CLASSIFICATION_TYPE = U
NORAD_CAT_ID   = 68286
ELEMENT_SET_NO = 999
REV_AT_EPOCH   = 292
BSTAR          = -.39609E-2
MEAN_MOTION_DOT = -.1525524E-1
MEAN_MOTION_DDOT = .67618E-3

CCSDS_OMM_VERS = 2.0
CREATION_DATE  = 
ORIGINATOR     = 

OBJECT_NAME    = STARLINK-37165
OBJECT_ID      = 2026-055AB
CENTER_NAME    = EARTH
REF_FRAME      = TEME
TIME_SYSTEM    = UTC
MEAN_ELEMENT_THEORY = SGP/SGP4

EPOCH          = 2026-03-30T04:00:01.999584
MEAN_MOTION    = 15.94552287
ECCENTRICITY   = .000076
INCLINATION    = 53.1573
RA_OF_ASC_NODE = 234.6593
ARG_OF_PERICENTER = 69.3578
MEAN_ANOMALY   = 170.8195

EPHEMERIS_TYPE = 0
CLASSIFICATION_TYPE = U
NORAD_CAT_ID   = 68287
ELEMENT_SET_NO = 999
REV_AT_EPOCH   = 292
BSTAR          = -.39697E-2
MEAN_MOTION_DOT = -.1536775E-1
MEAN_MOTION_DDOT = .68602E-3

CCSDS_OMM_VERS = 2.0
CREATION_DATE  = 
ORIGINATOR     = 

OBJECT_NAME    = STARLINK-37016
OBJECT_ID      = 2026-055AC
CENTER_NAME    = EARTH
REF_FRAME      = TEME
TIME_SYSTEM    = UTC
MEAN_ELEMENT_THEORY = SGP/SGP4

EPOCH          = 2026-03-30T04:00:01.999584
MEAN_MOTION    = 15.94367251
ECCENTRICITY   = .0000896
INCLINATION    = 53.1571
RA_OF_ASC_NODE = 234.6765
ARG_OF_PERICENTER = 67.1969
MEAN_ANOMALY   = 164.8695

EPHEMERIS_TYPE = 0
CLASSIFICATION_TYPE = U
NORAD_CAT_ID   = 68288
ELEMENT_SET_NO = 999
REV_AT_EPOCH   = 292
BSTAR          = -.39404E-2
MEAN_MOTION_DOT = -.151077E-1
MEAN_MOTION_DDOT = .66367E-3

CCSDS_OMM_VERS = 2.0
CREATION_DATE  = 
ORIGINATOR     = 

OBJECT_NAME    = STARLINK-37010
OBJECT_ID      = 2026-055AD
CENTER_NAME    = EARTH
REF_FRAME      = TEME
TIME_SYSTEM    = UTC
MEAN_ELEMENT_THEORY = SGP/SGP4

EPOCH          = 2026-03-30T04:00:01.999584
MEAN_MOTION    = 15.94650655
ECCENTRICITY   = .0000675
INCLINATION    = 53.1574
RA_OF_ASC_NODE = 234.6516
ARG_OF_PERICENTER = 70.1472
MEAN_ANOMALY   = 173.4644

EPHEMERIS_TYPE = 0
CLASSIFICATION_TYPE = U
NORAD_CAT_ID   = 68289
ELEMENT_SET_NO = 999
REV_AT_EPOCH   = 292
BSTAR          = -.39597E-2
MEAN_MOTION_DOT = -.1540914E-1
MEAN_MOTION_DDOT = .69009E-3

CCSDS_OMM_VERS = 2.0
CREATION_DATE  = 
ORIGINATOR     = 

OBJECT_NAME    = STARLINK-37151
OBJECT_ID      = 2026-055AE
CENTER_NAME    = EARTH
REF_FRAME      = TEME
TIME_SYSTEM    = UTC
MEAN_ELEMENT_THEORY = SGP/SGP4

EPOCH          = 2026-03-30T04:00:01.999584
MEAN_MOTION    = 15.94741398
ECCENTRICITY   = .0000651
INCLINATION    = 53.1569
RA_OF_ASC_NODE = 234.6457
ARG_OF_PERICENTER = 68.4784
MEAN_ANOMALY   = 178.2162

EPHEMERIS_TYPE = 0
CLASSIFICATION_TYPE = U
NORAD_CAT_ID   = 68290
ELEMENT_SET_NO = 999
REV_AT_EPOCH   = 292
BSTAR          = -.38633E-2
MEAN_MOTION_DOT = -.1511098E-1
MEAN_MOTION_DDOT = .66643E-3

CCSDS_OMM_VERS = 2.0
CREATION_DATE  = 
ORIGINATOR     = 

OBJECT_NAME    = STRIX-6
OBJECT_ID      = 2026-056A
CENTER_NAME    = EARTH
REF_FRAME      = TEME
TIME_SYSTEM    = UTC
MEAN_ELEMENT_THEORY = SGP/SGP4

EPOCH          = 2026-03-30T01:05:22.807968
MEAN_MOTION    = 14.99622294
ECCENTRICITY   = .0016603
INCLINATION    = 50.2845
RA_OF_ASC_NODE = 3.7553
ARG_OF_PERICENTER = 300.7517
MEAN_ANOMALY   = 59.1797

EPHEMERIS_TYPE = 0
CLASSIFICATION_TYPE = U
NORAD_CAT_ID   = 68291
ELEMENT_SET_NO = 999
REV_AT_EPOCH   = 139
BSTAR          = .57993E-3
MEAN_MOTION_DOT = .6987E-4
MEAN_MOTION_DDOT = 0

CCSDS_OMM_VERS = 2.0
CREATION_DATE  = 
ORIGINATOR     = 

OBJECT_NAME    = ELECTRON R/B
OBJECT_ID      = 2026-056B
CENTER_NAME    = EARTH
REF_FRAME      = TEME
TIME_SYSTEM    = UTC
MEAN_ELEMENT_THEORY = SGP/SGP4

EPOCH          = 2026-03-30T03:05:50.764992
MEAN_MOTION    = 16.09220014
ECCENTRICITY   = .0140198
INCLINATION    = 50.2563
RA_OF_ASC_NODE = 357.3880
ARG_OF_PERICENTER = 286.7867
MEAN_ANOMALY   = 71.7787

EPHEMERIS_TYPE = 0
CLASSIFICATION_TYPE = U
NORAD_CAT_ID   = 68292
ELEMENT_SET_NO = 999
REV_AT_EPOCH   = 148
BSTAR          = .11361E-2
MEAN_MOTION_DOT = .5326564E-1
MEAN_MOTION_DDOT = .11475E-4

